ONEWEB-0012             
1 44057U 19010A   26061.02145967 -.00000050  00000+0 -16516-3 0  9998
2 44057  87.8996 250.1053 0001200  91.8949 268.2320 13.16593089337469
ONEWEB-0010             
1 44058U 19010B   26061.04679140  .00000151  00000+0  36064-3 0  9996
2 44058  87.8999 250.0955 0001858 104.1319 256.0018 13.16592667337517
ONEWEB-0008             
1 44059U 19010C   26061.07212815  .00000046  00000+0  87341-4 0  9990
2 44059  87.8999 250.0875 0001684  87.0420 273.0904 13.16593299337636
ONEWEB-0007             
1 44060U 19010D   26061.09820556 -.00000041  00000+0 -14371-3 0  9990
2 44060  87.8949 280.6074 0001421  98.8619 261.2673 13.15547151337291
ONEWEB-0006             
1 44061U 19010E   26061.10215367 -.00000270  00000+0 -75109-3 0  9991
2 44061  87.8959 280.5599 0001627  95.2819 264.8497 13.15547845337344
ONEWEB-0011             
1 44062U 19010F   26061.14653559  .00000104  00000+0  24122-3 0  9998
2 44062  87.8958 280.5592 0001760  88.1107 272.0225 13.15551029337345
ONEWEB-0013             
1 45131U 20008A   26061.11805970  .00000104  00000+0  26471-3 0  9997
2 45131  87.8427  74.4426 0000962  75.0072 285.1161 13.09443400292057
ONEWEB-0017             
1 45132U 20008B   26061.02286080 -.00000500  00000+0 -14683-2 0  9996
2 45132  87.8763  57.6118 0002004  93.2932 266.8425 13.10374995293917
ONEWEB-0020             
1 45133U 20008C   26060.99299646  .00000124  00000+0  31866-3 0  9997
2 45133  87.8762  57.6079 0001840  88.0886 272.0452 13.10368708294308
ONEWEB-0021             
1 45134U 20008D   26061.00791484 -.00000537  00000+0 -15756-2 0  9997
2 45134  87.8756  57.6297 0001763  89.6275 270.5054 13.10370731294611
ONEWEB-0023             
1 45136U 20008F   26061.01870538 -.00000564  00000+0 -16512-2 0  9999
2 45136  87.8759  57.6075 0001703  85.2538 274.8784 13.10374397294044
ONEWEB-0024             
1 45137U 20008G   26061.06769066 -.00001842  00000+0 -53132-2 0  9997
2 45137  87.8763  57.5817 0002153  90.2504 269.8870 13.10382719294218
ONEWEB-0025             
1 45138U 20008H   26061.00194054 -.00000315  00000+0 -93083-3 0  9995
2 45138  87.8766  57.5883 0001526  88.9022 271.2281 13.10873206294531
ONEWEB-0026             
1 45139U 20008J   26061.19048798 -.00000313  00000+0 -91998-3 0  9990
2 45139  87.8851  42.3407 0002036  86.7962 273.3399 13.11413841297089
ONEWEB-0028             
1 45140U 20008K   26060.99465412  .00000142  00000+0  36371-3 0  9997
2 45140  87.8841  42.3892 0001304  73.2356 286.8915 13.11419810294579
ONEWEB-0032             
1 45141U 20008L   26061.02450656 -.00000457  00000+0 -13443-2 0  9992
2 45141  87.8766  57.6122 0001504  79.1349 280.9947 13.10373928294264
ONEWEB-0033             
1 45142U 20008M   26060.99962283 -.00000214  00000+0 -64902-3 0  9990
2 45142  87.8755  57.6271 0002303  96.5709 263.5680 13.10370916294174
