[{"OBJECT_NAME":"ONEWEB-0012","OBJECT_ID":"2019-010A","EPOCH":"2026-03-02T00:30:54.115488","MEAN_MOTION":13.16593089,"ECCENTRICITY":0.00012,"INCLINATION":87.8996,"RA_OF_ASC_NODE":250.1053,"ARG_OF_PERICENTER":91.8949,"MEAN_ANOMALY":268.232,"EPHEMERIS_TYPE":0,"CLASSIFICATION_TYPE":"U","NORAD_CAT_ID":44057,"ELEMENT_SET_NO":999,"REV_AT_EPOCH":33746,"BSTAR":-0.00016516,"MEAN_MOTION_DOT":-5.0e-7,"MEAN_MOTION_DDOT":0},{"OBJECT_NAME":"ONEWEB-0010","OBJECT_ID":"2019-010B","EPOCH":"2026-03-02T01:07:22.776960","MEAN_MOTION":13.16592667,"ECCENTRICITY":0.0001858,"INCLINATION":87.8999,"RA_OF_ASC_NODE":250.0955,"ARG_OF_PERICENTER":104.1319,"MEAN_ANOMALY":256.0018,"EPHEMERIS_TYPE":0,"CLASSIFICATION_TYPE":"U","NORAD_CAT_ID":44058,"ELEMENT_SET_NO":999,"REV_AT_EPOCH":33751,"BSTAR":0.00036064,"MEAN_MOTION_DOT":1.51e-6,"MEAN_MOTION_DDOT":0},{"OBJECT_NAME":"ONEWEB-0008","OBJECT_ID":"2019-010C","EPOCH":"2026-03-02T01:43:51.872160","MEAN_MOTION":13.16593299,"ECCENTRICITY":0.0001684,"INCLINATION":87.8999,"RA_OF_ASC_NODE":250.0875,"ARG_OF_PERICENTER":87.042,"MEAN_ANOMALY":273.0904,"EPHEMERIS_TYPE":0,"CLASSIFICATION_TYPE":"U","NORAD_CAT_ID":44059,"ELEMENT_SET_NO":999,"REV_AT_EPOCH":33763,"BSTAR":8.7341e-5,"MEAN_MOTION_DOT":4.6e-7,"MEAN_MOTION_DDOT":0},{"OBJECT_NAME":"ONEWEB-0007","OBJECT_ID":"2019-010D","EPOCH":"2026-03-02T02:21:24.960384","MEAN_MOTION":13.15547151,"ECCENTRICITY":0.0001421,"INCLINATION":87.8949,"RA_OF_ASC_NODE":280.6074,"ARG_OF_PERICENTER":98.8619,"MEAN_ANOMALY":261.2673,"EPHEMERIS_TYPE":0,"CLASSIFICATION_TYPE":"U","NORAD_CAT_ID":44060,"ELEMENT_SET_NO":999,"REV_AT_EPOCH":33729,"BSTAR":-0.00014371,"MEAN_MOTION_DOT":-4.1e-7,"MEAN_MOTION_DDOT":0},{"OBJECT_NAME":"ONEWEB-0006","OBJECT_ID":"2019-010E","EPOCH":"2026-03-02T02:27:06.077088","MEAN_MOTION":13.15547845,"ECCENTRICITY":0.0001627,"INCLINATION":87.8959,"RA_OF_ASC_NODE":280.5599,"ARG_OF_PERICENTER":95.2819,"MEAN_ANOMALY":264.8497,"EPHEMERIS_TYPE":0,"CLASSIFICATION_TYPE":"U","NORAD_CAT_ID":44061,"ELEMENT_SET_NO":999,"REV_AT_EPOCH":33734,"BSTAR":-0.00075109,"MEAN_MOTION_DOT":-2.7e-6,"MEAN_MOTION_DDOT":0},{"OBJECT_NAME":"ONEWEB-0011","OBJECT_ID":"2019-010F","EPOCH":"2026-03-02T03:31:00.674976","MEAN_MOTION":13.15551029,"ECCENTRICITY":0.000176,"INCLINATION":87.8958,"RA_OF_ASC_NODE":280.5592,"ARG_OF_PERICENTER":88.1107,"MEAN_ANOMALY":272.0225,"EPHEMERIS_TYPE":0,"CLASSIFICATION_TYPE":"U","NORAD_CAT_ID":44062,"ELEMENT_SET_NO":999,"REV_AT_EPOCH":33734,"BSTAR":0.00024122,"MEAN_MOTION_DOT":1.04e-6,"MEAN_MOTION_DDOT":0},{"OBJECT_NAME":"ONEWEB-0013","OBJECT_ID":"2020-008A","EPOCH":"2026-03-02T02:50:00.358080","MEAN_MOTION":13.094434,"ECCENTRICITY":9.62e-5,"INCLINATION":87.8427,"RA_OF_ASC_NODE":74.4426,"ARG_OF_PERICENTER":75.0072,"MEAN_ANOMALY":285.1161,"EPHEMERIS_TYPE":0,"CLASSIFICATION_TYPE":"U","NORAD_CAT_ID":45131,"ELEMENT_SET_NO":999,"REV_AT_EPOCH":29205,"BSTAR":0.00026471,"MEAN_MOTION_DOT":1.04e-6,"MEAN_MOTION_DDOT":0},{"OBJECT_NAME":"ONEWEB-0017","OBJECT_ID":"2020-008B","EPOCH":"2026-03-02T00:32:55.173120","MEAN_MOTION":13.10374995,"ECCENTRICITY":0.0002004,"INCLINATION":87.8763,"RA_OF_ASC_NODE":57.6118,"ARG_OF_PERICENTER":93.2932,"MEAN_ANOMALY":266.8425,"EPHEMERIS_TYPE":0,"CLASSIFICATION_TYPE":"U","NORAD_CAT_ID":45132,"ELEMENT_SET_NO":999,"REV_AT_EPOCH":29391,"BSTAR":-0.0014683,"MEAN_MOTION_DOT":-5.0e-6,"MEAN_MOTION_DDOT":0},{"OBJECT_NAME":"ONEWEB-0020","OBJECT_ID":"2020-008C","EPOCH":"2026-03-01T23:49:54.894144","MEAN_MOTION":13.10368708,"ECCENTRICITY":0.000184,"INCLINATION":87.8762,"RA_OF_ASC_NODE":57.6079,"ARG_OF_PERICENTER":88.0886,"MEAN_ANOMALY":272.0452,"EPHEMERIS_TYPE":0,"CLASSIFICATION_TYPE":"U","NORAD_CAT_ID":45133,"ELEMENT_SET_NO":999,"REV_AT_EPOCH":29430,"BSTAR":0.00031866,"MEAN_MOTION_DOT":1.24e-6,"MEAN_MOTION_DDOT":0},{"OBJECT_NAME":"ONEWEB-0021","OBJECT_ID":"2020-008D","EPOCH":"2026-03-02T00:11:23.842176","MEAN_MOTION":13.10370731,"ECCENTRICITY":0.0001763,"INCLINATION":87.8756,"RA_OF_ASC_NODE":57.6297,"ARG_OF_PERICENTER":89.6275,"MEAN_ANOMALY":270.5054,"EPHEMERIS_TYPE":0,"CLASSIFICATION_TYPE":"U","NORAD_CAT_ID":45134,"ELEMENT_SET_NO":999,"REV_AT_EPOCH":29461,"BSTAR":-0.0015756,"MEAN_MOTION_DOT":-5.37e-6,"MEAN_MOTION_DDOT":0},{"OBJECT_NAME":"ONEWEB-0023","OBJECT_ID":"2020-008F","EPOCH":"2026-03-02T00:26:56.144832","MEAN_MOTION":13.10374397,"ECCENTRICITY":0.0001703,"INCLINATION":87.8759,"RA_OF_ASC_NODE":57.6075,"ARG_OF_PERICENTER":85.2538,"MEAN_ANOMALY":274.8784,"EPHEMERIS_TYPE":0,"CLASSIFICATION_TYPE":"U","NORAD_CAT_ID":45136,"ELEMENT_SET_NO":999,"REV_AT_EPOCH":29404,"BSTAR":-0.0016512,"MEAN_MOTION_DOT":-5.64e-6,"MEAN_MOTION_DDOT":0},{"OBJECT_NAME":"ONEWEB-0024","OBJECT_ID":"2020-008G","EPOCH":"2026-03-02T01:37:28.473024","MEAN_MOTION":13.10382719,"ECCENTRICITY":0.0002153,"INCLINATION":87.8763,"RA_OF_ASC_NODE":57.5817,"ARG_OF_PERICENTER":90.2504,"MEAN_ANOMALY":269.887,"EPHEMERIS_TYPE":0,"CLASSIFICATION_TYPE":"U","NORAD_CAT_ID":45137,"ELEMENT_SET_NO":999,"REV_AT_EPOCH":29421,"BSTAR":-0.0053132,"MEAN_MOTION_DOT":-1.842e-5,"MEAN_MOTION_DDOT":0},{"OBJECT_NAME":"ONEWEB-0025","OBJECT_ID":"2020-008H","EPOCH":"2026-03-02T00:02:47.662656","MEAN_MOTION":13.10873206,"ECCENTRICITY":0.0001526,"INCLINATION":87.8766,"RA_OF_ASC_NODE":57.5883,"ARG_OF_PERICENTER":88.9022,"MEAN_ANOMALY":271.2281,"EPHEMERIS_TYPE":0,"CLASSIFICATION_TYPE":"U","NORAD_CAT_ID":45138,"ELEMENT_SET_NO":999,"REV_AT_EPOCH":29453,"BSTAR":-0.00093083,"MEAN_MOTION_DOT":-3.15e-6,"MEAN_MOTION_DDOT":0},{"OBJECT_NAME":"ONEWEB-0026","OBJECT_ID":"2020-008J","EPOCH":"2026-03-02T04:34:18.161472","MEAN_MOTION":13.11413841,"ECCENTRICITY":0.0002036,"INCLINATION":87.8851,"RA_OF_ASC_NODE":42.3407,"ARG_OF_PERICENTER":86.7962,"MEAN_ANOMALY":273.3399,"EPHEMERIS_TYPE":0,"CLASSIFICATION_TYPE":"U","NORAD_CAT_ID":45139,"ELEMENT_SET_NO":999,"REV_AT_EPOCH":29708,"BSTAR":-0.00091998,"MEAN_MOTION_DOT":-3.13e-6,"MEAN_MOTION_DDOT":0},{"OBJECT_NAME":"ONEWEB-0028","OBJECT_ID":"2020-008K","EPOCH":"2026-03-01T23:52:18.115968","MEAN_MOTION":13.1141981,"ECCENTRICITY":0.0001304,"INCLINATION":87.8841,"RA_OF_ASC_NODE":42.3892,"ARG_OF_PERICENTER":73.2356,"MEAN_ANOMALY":286.8915,"EPHEMERIS_TYPE":0,"CLASSIFICATION_TYPE":"U","NORAD_CAT_ID":45140,"ELEMENT_SET_NO":999,"REV_AT_EPOCH":29457,"BSTAR":0.00036371,"MEAN_MOTION_DOT":1.42e-6,"MEAN_MOTION_DDOT":0},{"OBJECT_NAME":"ONEWEB-0032","OBJECT_ID":"2020-008L","EPOCH":"2026-03-02T00:35:17.366784","MEAN_MOTION":13.10373928,"ECCENTRICITY":0.0001504,"INCLINATION":87.8766,"RA_OF_ASC_NODE":57.6122,"ARG_OF_PERICENTER":79.1349,"MEAN_ANOMALY":280.9947,"EPHEMERIS_TYPE":0,"CLASSIFICATION_TYPE":"U","NORAD_CAT_ID":45141,"ELEMENT_SET_NO":999,"REV_AT_EPOCH":29426,"BSTAR":-0.0013443,"MEAN_MOTION_DOT":-4.57e-6,"MEAN_MOTION_DDOT":0},{"OBJECT_NAME":"ONEWEB-0033","OBJECT_ID":"2020-008M","EPOCH":"2026-03-01T23:59:27.412512","MEAN_MOTION":13.10370916,"ECCENTRICITY":0.0002303,"INCLINATION":87.8755,"RA_OF_ASC_NODE":57.6271,"ARG_OF_PERICENTER":96.5709,"MEAN_ANOMALY":263.568,"EPHEMERIS_TYPE":0,"CLASSIFICATION_TYPE":"U","NORAD_CAT_ID":45142,"ELEMENT_SET_NO":999,"REV_AT_EPOCH":29417,"BSTAR":-0.00064902,"MEAN_MOTION_DOT":-2.14e-6,"MEAN_MOTION_DDOT":0}]
